{"type": "FeatureCollection", "features": [{"type": "Feature", "properties": {"norad_id": 25590, "name": "COSMOS 2361", "group": "musson", "lat": -45.23200489992745, "lon": -28.42627557467132, "alt_km": 986.9578102680334, "timestamp": "2025-12-19T22:41:52.661573+00:00", "meta": {"OBJECT_NAME": "COSMOS 2361", "OBJECT_ID": "1998-076A", "EPOCH": "2025-12-19T09:27:54.520128", "MEAN_MOTION": 13.73218304, "ECCENTRICITY": 0.0030144, "INCLINATION": 82.9341, "RA_OF_ASC_NODE": 339.1642, "ARG_OF_PERICENTER": 246.3066, "MEAN_ANOMALY": 223.5813, "EPHEMERIS_TYPE": 0, "CLASSIFICATION_TYPE": "U", "NORAD_CAT_ID": 25590, "ELEMENT_SET_NO": 999, "REV_AT_EPOCH": 35202, "BSTAR": 4.6612e-05, "MEAN_MOTION_DOT": 5.8e-07, "MEAN_MOTION_DDOT": 0}, "tle": {"line1": "1 25590U 98076A   25353.39438102  .00000058  00000+0  46612-4 0  9994", "line2": "2 25590  82.9341 339.1642 0030144 246.3066 223.5813 13.73218304352025"}}, "geometry": {"type": "Point", "coordinates": [-28.42627557467132, -45.23200489992745]}}, {"type": "Feature", "properties": {"norad_id": 26818, "name": "COSMOS 2378", "group": "musson", "lat": 49.8051022051226, "lon": 2.8312416532858946, "alt_km": 996.9896646413117, "timestamp": "2025-12-19T22:41:52.661595+00:00", "meta": {"OBJECT_NAME": "COSMOS 2378", "OBJECT_ID": "2001-023A", "EPOCH": "2025-12-19T10:45:28.864800", "MEAN_MOTION": 13.74142545, "ECCENTRICITY": 0.0032813, "INCLINATION": 82.927, "RA_OF_ASC_NODE": 354.7502, "ARG_OF_PERICENTER": 186.0025, "MEAN_ANOMALY": 284.9718, "EPHEMERIS_TYPE": 0, "CLASSIFICATION_TYPE": "U", "NORAD_CAT_ID": 26818, "ELEMENT_SET_NO": 999, "REV_AT_EPOCH": 23015, "BSTAR": 3.5693e-05, "MEAN_MOTION_DOT": 4.9e-07, "MEAN_MOTION_DDOT": 0}, "tle": {"line1": "1 26818U 01023A   25353.44825075  .00000049  00000+0  35693-4 0  9996", "line2": "2 26818  82.9270 354.7502 0032813 186.0025 284.9718 13.74142545230156"}}, "geometry": {"type": "Point", "coordinates": [2.8312416532858946, 49.8051022051226]}}, {"type": "Feature", "properties": {"norad_id": 27436, "name": "COSMOS 2389", "group": "musson", "lat": -74.97352753489909, "lon": -85.79626171613633, "alt_km": 1004.5860980828174, "timestamp": "2025-12-19T22:41:52.661609+00:00", "meta": {"OBJECT_NAME": "COSMOS 2389", "OBJECT_ID": "2002-026A", "EPOCH": "2025-12-19T06:08:42.332064", "MEAN_MOTION": 13.75155305, "ECCENTRICITY": 0.0047403, "INCLINATION": 82.9508, "RA_OF_ASC_NODE": 302.1607, "ARG_OF_PERICENTER": 43.0186, "MEAN_ANOMALY": 68.3041, "EPHEMERIS_TYPE": 0, "CLASSIFICATION_TYPE": "U", "NORAD_CAT_ID": 27436, "ELEMENT_SET_NO": 999, "REV_AT_EPOCH": 18238, "BSTAR": 3.0887e-05, "MEAN_MOTION_DOT": 4.5e-07, "MEAN_MOTION_DDOT": 0}, "tle": {"line1": "1 27436U 02026A   25353.25604551  .00000045  00000+0  30887-4 0  9996", "line2": "2 27436  82.9508 302.1607 0047403  43.0186  68.3041 13.75155305182384"}}, "geometry": {"type": "Point", "coordinates": [-85.79626171613633, -74.97352753489909]}}, {"type": "Feature", "properties": {"norad_id": 27818, "name": "COSMOS 2398", "group": "musson", "lat": 14.672084197823771, "lon": 85.53129065372518, "alt_km": 984.5525755711469, "timestamp": "2025-12-19T22:41:52.661620+00:00", "meta": {"OBJECT_NAME": "COSMOS 2398", "OBJECT_ID": "2003-023A", "EPOCH": "2025-12-19T04:56:41.901792", "MEAN_MOTION": 13.72386311, "ECCENTRICITY": 0.0032739, "INCLINATION": 82.9484, "RA_OF_ASC_NODE": 267.9334, "ARG_OF_PERICENTER": 94.5219, "MEAN_ANOMALY": 17.6858, "EPHEMERIS_TYPE": 0, "CLASSIFICATION_TYPE": "U", "NORAD_CAT_ID": 27818, "ELEMENT_SET_NO": 999, "REV_AT_EPOCH": 12905, "BSTAR": 4.1461e-05, "MEAN_MOTION_DOT": 5.3e-07, "MEAN_MOTION_DDOT": 0}, "tle": {"line1": "1 27818U 03023A   25353.20604053  .00000053  00000+0  41461-4 0  9999", "line2": "2 27818  82.9484 267.9334 0032739  94.5219  17.6858 13.72386311129058"}}, "geometry": {"type": "Point", "coordinates": [85.53129065372518, 14.672084197823771]}}, {"type": "Feature", "properties": {"norad_id": 28380, "name": "COSMOS 2407", "group": "musson", "lat": 75.52221938797985, "lon": -1.0351381042709822, "alt_km": 958.4599369847747, "timestamp": "2025-12-19T22:41:52.661631+00:00", "meta": {"OBJECT_NAME": "COSMOS 2407", "OBJECT_ID": "2004-028A", "EPOCH": "2025-12-19T13:38:19.511232", "MEAN_MOTION": 13.76314468, "ECCENTRICITY": 0.0040029, "INCLINATION": 82.9599, "RA_OF_ASC_NODE": 207.8369, "ARG_OF_PERICENTER": 36.2426, "MEAN_ANOMALY": 356.7997, "EPHEMERIS_TYPE": 0, "CLASSIFICATION_TYPE": "U", "NORAD_CAT_ID": 28380, "ELEMENT_SET_NO": 999, "REV_AT_EPOCH": 7517, "BSTAR": 6.2957e-05, "MEAN_MOTION_DOT": 7.7e-07, "MEAN_MOTION_DDOT": 0}, "tle": {"line1": "1 28380U 04028A   25353.56828138  .00000077  00000+0  62957-4 0  9990", "line2": "2 28380  82.9599 207.8369 0040029  36.2426 356.7997 13.76314468 75177"}}, "geometry": {"type": "Point", "coordinates": [-1.0351381042709822, 75.52221938797985]}}, {"type": "Feature", "properties": {"norad_id": 28521, "name": "COSMOS 2414", "group": "musson", "lat": -53.59092090124678, "lon": 169.54964351127026, "alt_km": 972.9554542980131, "timestamp": "2025-12-19T22:41:52.661642+00:00", "meta": {"OBJECT_NAME": "COSMOS 2414", "OBJECT_ID": "2005-002A", "EPOCH": "2025-12-19T10:50:55.701312", "MEAN_MOTION": 13.8790381, "ECCENTRICITY": 0.0041226, "INCLINATION": 82.9488, "RA_OF_ASC_NODE": 179.5841, "ARG_OF_PERICENTER": 120.9895, "MEAN_ANOMALY": 239.5328, "EPHEMERIS_TYPE": 0, "CLASSIFICATION_TYPE": "U", "NORAD_CAT_ID": 28521, "ELEMENT_SET_NO": 999, "REV_AT_EPOCH": 5888, "BSTAR": 4.4826e-05, "MEAN_MOTION_DOT": 7e-07, "MEAN_MOTION_DDOT": 0}, "tle": {"line1": "1 28521U 05002A   25353.45203358  .00000070  00000+0  44826-4 0  9997", "line2": "2 28521  82.9488 179.5841 0041226 120.9895 239.5328 13.87903810 58884"}}, "geometry": {"type": "Point", "coordinates": [169.54964351127026, -53.59092090124678]}}, {"type": "Feature", "properties": {"norad_id": 32052, "name": "COSMOS 2429", "group": "musson", "lat": 68.85249653446002, "lon": 139.42360628345523, "alt_km": 975.2848128659389, "timestamp": "2025-12-19T22:41:52.661653+00:00", "meta": {"OBJECT_NAME": "COSMOS 2429", "OBJECT_ID": "2007-038A", "EPOCH": "2025-12-19T16:55:45.234624", "MEAN_MOTION": 13.75150092, "ECCENTRICITY": 0.0038846, "INCLINATION": 82.9805, "RA_OF_ASC_NODE": 338.1734, "ARG_OF_PERICENTER": 18.7651, "MEAN_ANOMALY": 341.4927, "EPHEMERIS_TYPE": 0, "CLASSIFICATION_TYPE": "U", "NORAD_CAT_ID": 32052, "ELEMENT_SET_NO": 999, "REV_AT_EPOCH": 91698, "BSTAR": 3.9694e-05, "MEAN_MOTION_DOT": 5.3e-07, "MEAN_MOTION_DDOT": 0}, "tle": {"line1": "1 32052U 07038A   25353.70538466  .00000053  00000+0  39694-4 0  9999", "line2": "2 32052  82.9805 338.1734 0038846  18.7651 341.4927 13.75150092916988"}}, "geometry": {"type": "Point", "coordinates": [139.42360628345523, 68.85249653446002]}}, {"type": "Feature", "properties": {"norad_id": 35635, "name": "COSMOS 2454", "group": "musson", "lat": 48.03456742677423, "lon": 171.08519203716494, "alt_km": 909.8422141984502, "timestamp": "2025-12-19T22:41:52.661663+00:00", "meta": {"OBJECT_NAME": "COSMOS 2454", "OBJECT_ID": "2009-039A", "EPOCH": "2025-12-19T10:30:20.705760", "MEAN_MOTION": 13.89929402, "ECCENTRICITY": 0.0020257, "INCLINATION": 82.9554, "RA_OF_ASC_NODE": 163.5674, "ARG_OF_PERICENTER": 55.7855, "MEAN_ANOMALY": 332.3383, "EPHEMERIS_TYPE": 0, "CLASSIFICATION_TYPE": "U", "NORAD_CAT_ID": 35635, "ELEMENT_SET_NO": 999, "REV_AT_EPOCH": 83243, "BSTAR": 3.1583e-05, "MEAN_MOTION_DOT": 5.5e-07, "MEAN_MOTION_DDOT": 0}, "tle": {"line1": "1 35635U 09039A   25353.43773965  .00000055  00000+0  31583-4 0  9998", "line2": "2 35635  82.9554 163.5674 0020257  55.7855 332.3383 13.89929402832432"}}, "geometry": {"type": "Point", "coordinates": [171.08519203716494, 48.03456742677423]}}, {"type": "Feature", "properties": {"norad_id": 36519, "name": "COSMOS 2463", "group": "musson", "lat": -24.267787741694402, "lon": 18.223793095105364, "alt_km": 989.566582232038, "timestamp": "2025-12-19T22:41:52.661673+00:00", "meta": {"OBJECT_NAME": "COSMOS 2463", "OBJECT_ID": "2010-017A", "EPOCH": "2025-12-19T12:50:56.753376", "MEAN_MOTION": 13.71649731, "ECCENTRICITY": 0.0034742, "INCLINATION": 82.9605, "RA_OF_ASC_NODE": 21.7186, "ARG_OF_PERICENTER": 268.4983, "MEAN_ANOMALY": 201.5375, "EPHEMERIS_TYPE": 0, "CLASSIFICATION_TYPE": "U", "NORAD_CAT_ID": 36519, "ELEMENT_SET_NO": 999, "REV_AT_EPOCH": 78330, "BSTAR": 5.2986e-05, "MEAN_MOTION_DOT": 6.3e-07, "MEAN_MOTION_DDOT": 0}, "tle": {"line1": "1 36519U 10017A   25353.53537909  .00000063  00000+0  52986-4 0  9994", "line2": "2 36519  82.9605  21.7186 0034742 268.4983 201.5375 13.71649731783307"}}, "geometry": {"type": "Point", "coordinates": [18.223793095105364, -24.267787741694402]}}]}